$$SOE
2461295.500000000, A.D. 2026-Sep-12 00:00:00.0000, 2.606170510369505E+08, 2.966951786471112E+08, 4.976744409296754E+07,
2461302.500000000, A.D. 2026-Sep-19 00:00:00.0000, 2.524992297594526E+08, 3.047871071538984E+08, 4.848781660512151E+07,
2461309.500000000, A.D. 2026-Sep-26 00:00:00.0000, 2.441880633201437E+08, 3.126456696733665E+08, 4.717106168989122E+07,
2461316.500000000, A.D. 2026-Oct-03 00:00:00.0000, 2.356909618793087E+08, 3.202661912130084E+08, 4.581839029383934E+07,
2461323.500000000, A.D. 2026-Oct-10 00:00:00.0000, 2.270154319702629E+08, 3.276442805420716E+08, 4.443103439250967E+07,
2461330.500000000, A.D. 2026-Oct-17 00:00:00.0000, 2.181690638143332E+08, 3.347758306436891E+08, 4.301024481569177E+07,
2461337.500000000, A.D. 2026-Oct-24 00:00:00.0000, 2.091595188319878E+08, 3.416570184142125E+08, 4.155728909141828E+07,
2461344.500000000, A.D. 2026-Oct-31 00:00:00.0000, 1.999945174860789E+08, 3.482843035713477E+08, 4.007344930106758E+07,
2461351.500000000, A.D. 2026-Nov-07 00:00:00.0000, 1.906818278310392E+08, 3.546544268747407E+08, 3.856001992671335E+07,
2461358.500000000, A.D. 2026-Nov-14 00:00:00.0000, 1.812292550014079E+08, 3.607644085758961E+08, 3.701830574998288E+07,
2461365.500000000, A.D. 2026-Nov-21 00:00:00.0000, 1.716446298552888E+08, 3.666115478050126E+08, 3.544962002795842E+07,
2461372.500000000, A.D. 2026-Nov-28 00:00:00.0000, 1.619357957918746E+08, 3.721934199131734E+08, 3.385528279548420E+07,
2461379.500000000, A.D. 2026-Dec-05 00:00:00.0000, 1.521105973784049E+08, 3.775078711508785E+08, 3.223661891360044E+07,
2461386.500000000, A.D. 2026-Dec-12 00:00:00.0000, 1.421768709698793E+08, 3.825530138323386E+08, 3.059495610801357E+07,
2461393.500000000, A.D. 2026-Dec-19 00:00:00.0000, 1.321424354488686E+08, 3.873272220281886E+08, 2.893162317522973E+07,
2461400.500000000, A.D. 2026-Dec-26 00:00:00.0000, 1.220150829554956E+08, 3.918291269559053E+08, 2.724794830210981E+07,
2461407.500000000, A.D. 2027-Jan-02 00:00:00.0000, 1.118025698942622E+08, 3.960576119136263E+08, 2.554525746074039E+07,
2461414.500000000, A.D. 2027-Jan-09 00:00:00.0000, 1.015126083426008E+08, 4.000118068123471E+08, 2.382487287145898E+07,
2461421.500000000, A.D. 2027-Jan-16 00:00:00.0000, 9.115285790101345E+07, 4.036910823484645E+08, 2.208811153273970E+07,
2461428.500000000, A.D. 2027-Jan-23 00:00:00.0000, 8.073091803206262E+07, 4.070950438088288E+08, 2.033628381116986E+07,
2461435.500000000, A.D. 2027-Jan-30 00:00:00.0000, 7.025432107429880E+07, 4.102235244912649E+08, 1.857069207066175E+07,
2461442.500000000, A.D. 2027-Feb-06 00:00:00.0000, 5.973052635179693E+07, 4.130765791109996E+08, 1.679262932964712E+07,
2461449.500000000, A.D. 2027-Feb-13 00:00:00.0000, 4.916691491409241E+07, 4.156544784429020E+08, 1.500337808760598E+07,
2461456.500000000, A.D. 2027-Feb-20 00:00:00.0000, 3.857078253738018E+07, 4.179577044343714E+08, 1.320420947193313E+07,
2461463.500000000, A.D. 2027-Feb-27 00:00:00.0000, 2.794933237248584E+07, 4.199869425974994E+08, 1.139638231353211E+07,
2461470.500000000, A.D. 2027-Mar-06 00:00:00.0000, 1.730967024606536E+07, 4.217430736313454E+08, 9.581142030567437E+06,
2461477.500000000, A.D. 2027-Mar-13 00:00:00.0000, 6.658801006609478E+06, 4.232271663501778E+08, 7.759719632924408E+06,
2461484.500000000, A.D. 2027-Mar-20 00:00:00.0000, -3.996375224314522E+06, 4.244404711039033E+08, 5.933330880880743E+06,
2461491.500000000, A.D. 2027-Mar-27 00:00:00.0000, -1.464906670584241E+07, 4.253844131617022E+08, 4.103175532802373E+06,
2461498.500000000, A.D. 2027-Apr-03 00:00:00.0000, -2.529259344657245E+07, 4.260605860305110E+08, 2.270436657444090E+06,
2461505.500000000, A.D. 2027-Apr-10 00:00:00.0000, -3.592039024033158E+07, 4.264707447494858E+08, 4.362800050901473E+05,
2461512.500000000, A.D. 2027-Apr-17 00:00:00.0000, -4.652600936058236E+07, 4.266167991626992E+08, -1.398146567787319E+06,
2461519.500000000, A.D. 2027-Apr-24 00:00:00.0000, -5.710312284839185E+07, 4.265008071229471E+08, -3.231713634887338E+06,
2461526.500000000, A.D. 2027-May-01 00:00:00.0000, -6.764552410894762E+07, 4.261249676681260E+08, -5.063310724891782E+06,
2461533.500000000, A.D. 2027-May-08 00:00:00.0000, -7.814712852441181E+07, 4.254916149315435E+08, -6.891846804070950E+06,
2461540.500000000, A.D. 2027-May-15 00:00:00.0000, -8.860197459457581E+07, 4.246032137525257E+08, -8.716250504047573E+06,
2461547.500000000, A.D. 2027-May-22 00:00:00.0000, -9.900422718173704E+07, 4.234623544047596E+08, -1.053547016556680E+07,
2461554.500000000, A.D. 2027-May-29 00:00:00.0000, -1.093481795191566E+08, 4.220717449789459E+08, -1.234847412787569E+07,
2461561.500000000, A.D. 2027-Jun-05 00:00:00.0000, -1.196282531155957E+08, 4.204342045608710E+08, -1.415425109120810E+07,
2461568.500000000, A.D. 2027-Jun-12 00:00:00.0000, -1.298389975772772E+08, 4.185526576458046E+08, -1.595181033563513E+07,
2461575.500000000, A.D. 2027-Jun-19 00:00:00.0000, -1.399750906915960E+08, 4.164301288592596E+08, -1.774018184459785E+07,
2461582.500000000, A.D. 2027-Jun-26 00:00:00.0000, -1.500313385072416E+08, 4.140697377268867E+08, -1.951841638222718E+07,
2461589.500000000, A.D. 2027-Jul-03 00:00:00.0000, -1.600026752924911E+08, 4.114746935057443E+08, -2.128558553804059E+07,
2461596.500000000, A.D. 2027-Jul-10 00:00:00.0000, -1.698841633480247E+08, 4.086482900891060E+08, -2.304078174384728E+07,
2461603.500000000, A.D. 2027-Jul-17 00:00:00.0000, -1.796709926501278E+08, 4.055939009484818E+08, -2.478311827147582E+07,
2461610.500000000, A.D. 2027-Jul-24 00:00:00.0000, -1.893584801789865E+08, 4.023149740511946E+08, -2.651172923273994E+07,
2461617.500000000, A.D. 2027-Jul-31 00:00:00.0000, -1.989420685311809E+08, 3.988150269883521E+08, -2.822576960175838E+07,
2461624.500000000, A.D. 2027-Aug-07 00:00:00.0000, -2.084173240282771E+08, 3.950976434631709E+08, -2.992441514854519E+07,
2461631.500000000, A.D. 2027-Aug-14 00:00:00.0000, -2.177799366343652E+08, 3.911664708853009E+08, -3.160686209516595E+07,
2461638.500000000, A.D. 2027-Aug-21 00:00:00.0000, -2.270257210745158E+08, 3.870252157047890E+08, -3.327232682749987E+07,
2461645.500000000, A.D. 2027-Aug-28 00:00:00.0000, -2.361506157348579E+08, 3.826776376852419E+08, -3.492004588016026E+07,
2461652.500000000, A.D. 2027-Sep-04 00:00:00.0000, -2.451506805387002E+08, 3.781275456193639E+08, -3.654927588419315E+07,
2461659.500000000, A.D. 2027-Sep-11 00:00:00.0000, -2.540220952033459E+08, 3.733787938272841E+08, -3.815929340633923E+07,
2461666.500000000, A.D. 2027-Sep-18 00:00:00.0000, -2.627611577515326E+08, 3.684352787860993E+08, -3.974939474723701E+07,
2461673.500000000, A.D. 2027-Sep-25 00:00:00.0000, -2.713642830557511E+08, 3.633009358100792E+08, -4.131889572758964E+07,
2461680.500000000, A.D. 2027-Oct-02 00:00:00.0000, -2.798280013475587E+08, 3.579797358058050E+08, -4.286713146849161E+07,
2461687.500000000, A.D. 2027-Oct-09 00:00:00.0000, -2.881489566763971E+08, 3.524756820943286E+08, -4.439345616981764E+07,
2461694.500000000, A.D. 2027-Oct-16 00:00:00.0000, -2.963239052613807E+08, 3.467928072419851E+08, -4.589724289832743E+07,
2461701.500000000, A.D. 2027-Oct-23 00:00:00.0000, -3.043497134824167E+08, 3.409351698905222E+08, -4.737788341104543E+07,
2461708.500000000, A.D. 2027-Oct-30 00:00:00.0000, -3.122233551419805E+08, 3.349068521930102E+08, -4.883478799955860E+07,
2461715.500000000, A.D. 2027-Nov-06 00:00:00.0000, -3.199419091674290E+08, 3.287119589801658E+08, -5.026738515761626E+07,
2461722.500000000, A.D. 2027-Nov-13 00:00:00.0000, -3.275025597452059E+08, 3.223546165786339E+08, -5.167512106112574E+07,
2461729.500000000, A.D. 2027-Nov-20 00:00:00.0000, -3.349025959880593E+08, 3.158389690917300E+08, -5.305745930599408E+07,
2461736.500000000, A.D. 2027-Nov-27 00:00:00.0000, -3.421394095213813E+08, 3.091691751008766E+08, -5.441388081001888E+07,
2461743.500000000, A.D. 2027-Dec-04 00:00:00.0000, -3.492104920184027E+08, 3.023494056976144E+08, -5.574388361963337E+07,
2461750.500000000, A.D. 2027-Dec-11 00:00:00.0000, -3.561134332394318E+08, 2.953838428796427E+08, -5.704698265094594E+07,
2461757.500000000, A.D. 2027-Dec-18 00:00:00.0000, -3.628459193033715E+08, 2.882766779682099E+08, -5.832270941863270E+07,
2461764.500000000, A.D. 2027-Dec-25 00:00:00.0000, -3.694057310426568E+08, 2.810321100406186E+08, -5.957061176728501E+07,
2461771.500000000, A.D. 2028-Jan-01 00:00:00.0000, -3.757907424033387E+08, 2.736543443884588E+08, -6.079025360831033E+07,
$$EOE